[{"OBJECT_NAME":"ONEWEB-0212","OBJECT_ID":"2021-045AA","EPOCH":"2026-03-09T15:37:14.379168","MEAN_MOTION":13.1554815,"ECCENTRICITY":0.0001634,"INCLINATION":87.8947,"RA_OF_ASC_NODE":279.056,"ARG_OF_PERICENTER":87.7955,"MEAN_ANOMALY":272.3363,"EPHEMERIS_TYPE":0,"CLASSIFICATION_TYPE":"U","NORAD_CAT_ID":48791,"ELEMENT_SET_NO":999,"REV_AT_EPOCH":23134,"BSTAR":0.00041604,"MEAN_MOTION_DOT":1.69e-6,"MEAN_MOTION_DDOT":0},{"OBJECT_NAME":"SL-14 R\/B","OBJECT_ID":"1991-056B","EPOCH":"2026-03-09T20:26:09.161952","MEAN_MOTION":13.20280426,"ECCENTRICITY":0.00238539,"INCLINATION":82.5498,"RA_OF_ASC_NODE":198.5078,"ARG_OF_PERICENTER":321.4136,"MEAN_ANOMALY":154.284,"EPHEMERIS_TYPE":0,"CLASSIFICATION_TYPE":"U","NORAD_CAT_ID":21656,"ELEMENT_SET_NO":999,"REV_AT_EPOCH":66230,"BSTAR":7.8081907e-5,"MEAN_MOTION_DOT":4.4e-7,"MEAN_MOTION_DDOT":0}]
